0 THORAD DELTA 1 DEB
1 08165U 74089AF  13282.71834082 -.00000018  00000-0  16553-3 0  2083
2 08165 101.5411 335.8124 0020533 211.4109 270.3486 12.49776106774171
0 THORAD DELTA 1 DEB
1 08165U 74089AF  13287.10649204  .00000035  00000-0  51499-3 0  2100
2 08165 101.5400 340.0501 0020603 203.1430 213.2844 12.49776387774725
0 THORAD DELTA 1 DEB
1 08165U 74089AF  13289.76127144  .00000011  00000-0  35706-3 0  2116
2 08165 101.5390 342.6134 0020638 198.1626 277.5040 12.49776709775057
0 THORAD DELTA 1 DEB
1 08165U 74089AF  13292.65179317 -.00000000  00000-0  28454-3 0  2129
2 08165 101.5386 345.4044 0020681 192.7936 322.3138 12.49777282775419
0 THORAD DELTA 1 DEB
1 08165U 74089AF  13294.65297343 -.00000007  00000-0  23863-3 0  2138
2 08165 101.5387 347.3367 0020697 189.0342 325.9130 12.49777592775668
